{"type":"FeatureCollection","features":[{"type":"Feature","id":"Kingston upon Thames","properties":{"GSSCode":"E09000021"},"geometry":{"type":"Polygon","coordinates":[[[-0.3177503029740142,51.39368042757429],[-0.30964334219850076,51.4000008372939],[-0.30846107708540504,51.41462691363224],[-0.3060120993511354,51.42147402416182],[-0.30854552459348333,51.42516092983159],[-0.31445685015896185,51.428240103797556],[-0.31065671229543995,51.43221061759578],[-0.3064343368915267,51.43014432980283],[-0.3015363814229874,51.430549484272035],[-0.293429420647474,51.426497939579974],[-0.29064265288089125,51.42900989728905],[-0.28658917249313454,51.42017752986036],[-0.28042450440342126,51.421838663184104],[-0.2709663834986556,51.42953659809902],[-0.2540768818830027,51.43727504846085],[-0.2511212191002634,51.43257525661806],[-0.2542457768991592,51.42921247452365],[-0.2523879317214374,51.42629536234537],[-0.24985450647908947,51.41649062419059],[-0.24470320848631533,51.40437650556132],[-0.2474055287448198,51.397569910478666],[-0.2416630981954978,51.39388300480889],[-0.2397208055096977,51.38930475930686],[-0.23870743541275857,51.38610403900014],[-0.24504099851862837,51.38002672196205],[-0.25357019683453313,51.37877074310751],[-0.2610015775454204,51.37958105204592],[-0.26471726790086403,51.3756105382477],[-0.2719797535955948,51.37261239517558],[-0.2882781226546999,51.36207837897622],[-0.2850691173477258,51.36122755459089],[-0.2911493379293608,51.35656827819502],[-0.29275384058284787,51.35267879529064],[-0.3001007737856569,51.34749281808481],[-0.30406980666533534,51.34303611892354],[-0.30567430931882233,51.335419214902466],[-0.31927035811942295,51.327802310881395],[-0.3283062414837973,51.32646530113302],[-0.33075521921806694,51.328936743395175],[-0.3281373464676407,51.34404900509656],[-0.33050187669383213,51.34842467336398],[-0.32805289895956247,51.35215209448067],[-0.32222602090216224,51.35620363917273],[-0.31825698802248376,51.36349641961844],[-0.318003645498249,51.3703030147011],[-0.3143724026508836,51.37463816752161],[-0.30871441960963986,51.37544847646002],[-0.30753215449654414,51.37901383578903],[-0.3109100548196747,51.386185069893976],[-0.3177503029740142,51.39368042757429]]]}},{"type":"Feature","id":"Croydon","properties":{"GSSCode":"E09000008"},"geometry":{"type":"Polygon","coordinates":[[[-0.15654001005260715,51.3215224166087],[-0.14556183400243272,51.32350767350781],[-0.1444640163974153,51.32646530113302],[-0.14936197186595462,51.32877468160749],[-0.14404177885702396,51.33067890761276],[-0.1475885741963111,51.33878199699688],[-0.14463291141357182,51.342104263644366],[-0.1275745147817624,51.34745230263788],[-0.12681448720905802,51.34485931403497],[-0.11693412876390102,51.34575065386722],[-0.12183208423244041,51.359080235904095],[-0.12132539918397078,51.36475239847298],[-0.12808119983023197,51.38051290732509],[-0.12951680746756244,51.38719795606699],[-0.13441476293610183,51.390884861736765],[-0.12453440449094488,51.39740784869098],[-0.13120575762912778,51.404011866539044],[-0.13247247025030173,51.408387534806465],[-0.12774340979791893,51.41231753315776],[-0.12495664203133616,51.41328990388386],[-0.11946755400624898,51.41900258189966],[-0.11271175335998784,51.423256703826326],[-0.0938799590585348,51.4228110339102],[-0.08644857834764752,51.4192861900281],[-0.07851051258829067,51.41985340628499],[-0.08045280527409077,51.41555876891141],[-0.07276808203896867,51.41268217218005],[-0.07344366210359482,51.40960299821408],[-0.06685675647349015,51.4027558876845],[-0.05942537576260287,51.39927155924933],[-0.053007365148654784,51.40145939338304],[-0.05064283492246335,51.39955516737778],[-0.05342960268904612,51.39517949911035],[-0.04228253162271517,51.38930475930686],[-0.03654010107339317,51.38845393492153],[-0.03789126120264541,51.383227442268776],[-0.03696233861378451,51.37702857888992],[-0.030206537967523373,51.37723115612452],[-0.02682863764439275,51.37937847481132],[-0.023619632337418706,51.37220724070637],[-0.023112947288949137,51.36702126350053],[-0.015681566578061856,51.35887765866949],[-0.008419080883331098,51.35563642291584],[-0.005210075576356998,51.3523951871622],[0.0023057526426084607,51.32913932062978],[-0.008756870915644144,51.333920143366406],[-0.014330406448809618,51.32978756778051],[-0.020579522046601184,51.337161379120055],[-0.025984162563610136,51.338579419762276],[-0.03282441071794956,51.337444987248496],[-0.03789126120264541,51.33870096610304],[-0.04202918909848041,51.33379859702564],[-0.05030504489015031,51.33262364906495],[-0.047856067155880644,51.3252498377254],[-0.0513184149870895,51.32245427188788],[-0.06415443621498568,51.31864581987734],[-0.0700657617804642,51.31888891255886],[-0.07107913187740339,51.32123880848026],[-0.078932750128682,51.31978025239112],[-0.08484407569416053,51.31585025403982],[-0.08197286041949953,51.31066427683398],[-0.08881310857383895,51.30722046384573],[-0.09117763880003038,51.30146727038301],[-0.09438664410700442,51.29936046714314],[-0.11110725070650079,51.29227026393203],[-0.11465404604578788,51.292432325719716],[-0.1177786038446837,51.2870842867262],[-0.12428106196671007,51.28676016315083],[-0.1301079400241103,51.2925943875074],[-0.1311213101210495,51.29547098423876],[-0.13737042571884106,51.30077850778536],[-0.1406638785338934,51.29956304437774],[-0.15535774493951143,51.301264693148404],[-0.1577222751657028,51.30458695979589],[-0.15434437484257224,51.31034015325862],[-0.16194465056961604,51.319618190603435],[-0.15654001005260715,51.3215224166087]]]}},{"type":"Feature","id":"Bromley","properties":{"GSSCode":"E09000006"},"geometry":{"type":"Polygon","coordinates":[[[0.0023057526426084607,51.32913932062978],[-0.005210075576356998,51.3523951871622],[-0.008419080883331098,51.35563642291584],[-0.015681566578061856,51.35887765866949],[-0.023112947288949137,51.36702126350053],[-0.023619632337418706,51.37220724070637],[-0.02682863764439275,51.37937847481132],[-0.030206537967523373,51.37723115612452],[-0.03696233861378451,51.37702857888992],[-0.03789126120264541,51.383227442268776],[-0.03654010107339317,51.38845393492153],[-0.04228253162271517,51.38930475930686],[-0.05342960268904612,51.39517949911035],[-0.05064283492246335,51.39955516737778],[-0.053007365148654784,51.40145939338304],[-0.05942537576260287,51.39927155924933],[-0.06685675647349015,51.4027558876845],[-0.07344366210359482,51.40960299821408],[-0.07276808203896867,51.41268217218005],[-0.08045280527409077,51.41555876891141],[-0.07851051258829067,51.41985340628499],[-0.07834161757213415,51.420623199776486],[-0.07395034715206439,51.42613330055769],[-0.06288772359381173,51.42524196072544],[-0.056807503012176686,51.42297309569788],[-0.043718139260045696,51.42289206480404],[-0.037469023662254075,51.42499886804391],[-0.030206537967523373,51.42568763064156],[-0.02091731207891423,51.42094732335185],[-0.02252181473240128,51.41754402581052],[-0.017961649296174997,51.415072583548366],[-0.010530268585287716,51.41353299656538],[-0.0008188051562872944,51.41588289248678],[0.0017146200860606031,51.418556911983536],[0.005599205457660794,51.41843536564277],[0.008048183191930458,51.42305412659172],[0.014128403773565501,51.42617381600461],[0.021053099435983214,51.426822063155335],[0.02544436985605303,51.42896938184213],[0.03616920338199259,51.42236536399407],[0.038702628624340485,51.42463422902163],[0.03768925852740135,51.43334505010955],[0.03372022564772292,51.43168391678581],[0.025359922347974684,51.43569494603095],[0.024768789791426826,51.43824741918694],[0.028822270179183596,51.438774119996914],[0.02932895522765322,51.441691232175195],[0.030342325324592356,51.444324736225035],[0.03971599872127973,51.44100246957755],[0.05863224053081095,51.4245937135747],[0.06336130098319381,51.42426958999934],[0.07535284713030732,51.432008040361175],[0.08261533282503808,51.43022536069667],[0.09004671353592542,51.423337734720164],[0.1070206626596566,51.41426227460995],[0.11352312078168292,51.413087326649254],[0.12906146226808357,51.41491052176068],[0.1489066266664758,51.4084685657003],[0.15431126718348476,51.40494372181821],[0.1590403276358675,51.39570619992032],[0.16233378045091984,51.39250547961359],[0.1477243615533801,51.39278908774204],[0.1498355492553367,51.390884861736765],[0.14991999676341494,51.37998620651513],[0.15321344957846728,51.378041465062935],[0.1511867093845889,51.37216672525945],[0.14502204129487561,51.362848172467714],[0.14586651637565828,51.358229411518764],[0.14257306356060595,51.35073405383845],[0.1369150805193622,51.344170551437315],[0.12509242938840515,51.345872200207985],[0.11858997126637882,51.34421106688424],[0.11664767858057867,51.34145601649364],[0.12154563404911811,51.33375808157872],[0.11419870084630901,51.32739715641219],[0.1047405799415434,51.32735664096527],[0.09410019392368207,51.32030695320108],[0.08497986305122951,51.3160123158275],[0.08278422784119466,51.30564036141583],[0.08633102318048169,51.30013026063463],[0.09114453114094279,51.29684850943406],[0.08523320557546432,51.29291851108276],[0.058463345514654486,51.28935315175375],[0.05601436778038482,51.2923918102728],[0.050525279755297525,51.293971912702695],[0.042333871471705864,51.29267541840124],[0.044276164157506015,51.298590673651645],[0.04241831897978421,51.30171036306453],[0.032875750566940254,51.30750407197418],[0.02459989477527036,51.30187242485221],[0.019110806750183174,51.29170304767514],[0.01497287885434817,51.29178407856899],[0.008385973224243504,51.310826338621666],[0.010328265910043655,51.316133862168265],[0.006528128046521697,51.31564767680522],[0.0023057526426084607,51.32913932062978]]]}},{"type":"Feature","id":"Hounslow","properties":{"GSSCode":"E09000018"},"geometry":{"type":"Polygon","coordinates":[[[-0.2445343134701588,51.488689150603086],[-0.2483344513336807,51.486906470938585],[-0.25129011411641994,51.482611833565],[-0.25129011411641994,51.478236165297574],[-0.2543302244072375,51.473212249879424],[-0.26015710246463775,51.47130802387415],[-0.2692774333370903,51.47361740434863],[-0.2757798914591167,51.48196358641427],[-0.281606769516517,51.48625822378786],[-0.29275384058284787,51.48747368719547],[-0.29942519372103077,51.48500224493331],[-0.300776353850283,51.48184204007351],[-0.3069410219399963,51.47625090839846],[-0.3207059657567534,51.47110544663955],[-0.3217193358536926,51.465392768623744],[-0.32670173883031023,51.46174637840089],[-0.3256039212252928,51.45797844183728],[-0.33143079928269303,51.45728967923963],[-0.33700433481585845,51.45461565974286],[-0.3401288926147543,51.459234420691814],[-0.3479825108660329,51.45680349387658],[-0.35642726167385935,51.4584241117534],[-0.37306342076527743,51.45749225647423],[-0.38378825429121705,51.44951071343087],[-0.3877572871708955,51.44942968253703],[-0.38623723202548677,51.44671514759335],[-0.3778769287257385,51.44242051021977],[-0.3712055755875556,51.4432713346051],[-0.3668143051674859,51.441650716728276],[-0.3778769287257385,51.4367888630978],[-0.37610353105609495,51.435532884243266],[-0.3832815692427475,51.43212958670193],[-0.38809507720320857,51.42787546477527],[-0.38412604432353015,51.422689487569436],[-0.38547720445278233,51.42074474611725],[-0.39138853001826085,51.42232484854715],[-0.3996643858099308,51.42354031195477],[-0.4054068163592528,51.42248691033483],[-0.41385156716707927,51.43006329890898],[-0.42119850036988826,51.43217010214885],[-0.42955880366963645,51.428807320054446],[-0.44003029467134125,51.43063051516587],[-0.43977695214710644,51.43460102896409],[-0.44771501790646334,51.435006183433295],[-0.4462794102691328,51.43998958340453],[-0.45649755874660286,51.438125872846186],[-0.4576798238596985,51.44922710530243],[-0.4614799617232205,51.448984012620905],[-0.4586931939566377,51.45631730851353],[-0.4439993275510197,51.45327864999449],[-0.4414659023086718,51.45680349387658],[-0.4366523943482107,51.457694833708835],[-0.43361228405739316,51.46174637840089],[-0.422380765482984,51.466486685690604],[-0.4111492469085748,51.46988998323193],[-0.4158783073609576,51.474022558817836],[-0.4168072299498185,51.48086966934741],[-0.41258485454590527,51.48860811970925],[-0.41089590438434,51.49780512616022],[-0.40692687150466156,51.49970935216549],[-0.3870817071062694,51.49468543674734],[-0.3778769287257385,51.496589662752605],[-0.3718811556521817,51.490471830267595],[-0.36318306232012054,51.49586038470804],[-0.35068483112453736,51.49910162046168],[-0.3421556328086326,51.496022446495715],[-0.3299951916453625,51.495090591216545],[-0.3234082860152579,51.49590090015496],[-0.31918591061134466,51.494239766831214],[-0.3158080102882141,51.49586038470804],[-0.31192342491661396,51.49197090180366],[-0.3054209667945875,51.494523374959655],[-0.30584320433497886,51.4961845082834],[-0.2975673485433089,51.49488801398194],[-0.3006919063422048,51.49934471314321],[-0.2940205532040219,51.50157306272384],[-0.28574469741235187,51.50076275378543],[-0.2807622944357343,51.50282904157838],[-0.27071304097442084,51.49444234406582],[-0.25542804201225494,51.49492852942886],[-0.2530635117860635,51.50141100093616],[-0.2492633739225416,51.49695430177489],[-0.24444986596208051,51.49792667250099],[-0.2445343134701588,51.488689150603086]]]}},{"type":"Feature","id":"Ealing","properties":{"GSSCode":"E09000009"},"geometry":{"type":"Polygon","coordinates":[[[-0.3777924812176603,51.554972421765186],[-0.3758501885318602,51.55306819575992],[-0.3625074822554944,51.55602582338512],[-0.3624230347474161,51.557281802239665],[-0.34756027332564154,51.559672213607975],[-0.342577870349024,51.55748437947427],[-0.335568727178528,51.55659303964201],[-0.3279684514514842,51.55529654534055],[-0.31276789999739657,51.5493002591963],[-0.3071943644642311,51.54524871450425],[-0.3063498893834484,51.53382335847264],[-0.30271864653608305,51.53200016336121],[-0.2957939508736654,51.5353224300087],[-0.2887848077031694,51.53609222350019],[-0.2824512445972996,51.538685212103104],[-0.27848221171762116,51.53536294545562],[-0.27924223929032554,51.533053564981145],[-0.28405574725078664,51.53349923489727],[-0.28937594025971725,51.53167603978584],[-0.2805933994195777,51.528475319479114],[-0.26657511307858583,51.530501091825144],[-0.2577925722384463,51.5353224300087],[-0.24630771113980238,51.5327699568527],[-0.25255682673759394,51.52507202193779],[-0.24884113638215027,51.5136871813531],[-0.24664550117211542,51.51125625453786],[-0.24571657858325452,51.50461172124288],[-0.2550902519799419,51.50428759766752],[-0.2530635117860635,51.50141100093616],[-0.25542804201225494,51.49492852942886],[-0.27071304097442084,51.49444234406582],[-0.2807622944357343,51.50282904157838],[-0.28574469741235187,51.50076275378543],[-0.2940205532040219,51.50157306272384],[-0.3006919063422048,51.49934471314321],[-0.2975673485433089,51.49488801398194],[-0.30584320433497886,51.4961845082834],[-0.3054209667945875,51.494523374959655],[-0.31192342491661396,51.49197090180366],[-0.3158080102882141,51.49586038470804],[-0.31918591061134466,51.494239766831214],[-0.3234082860152579,51.49590090015496],[-0.3299951916453625,51.495090591216545],[-0.3421556328086326,51.496022446495715],[-0.35068483112453736,51.49910162046168],[-0.36318306232012054,51.49586038470804],[-0.3718811556521817,51.490471830267595],[-0.3778769287257385,51.496589662752605],[-0.3870817071062694,51.49468543674734],[-0.40692687150466156,51.49970935216549],[-0.4037178661976875,51.50311264970682],[-0.39307748017982613,51.507407287080405],[-0.3902062649051652,51.51372769680002],[-0.3826059891781214,51.51794130327976],[-0.3759346360399385,51.52572026908852],[-0.37618797856417324,51.52879944305448],[-0.41342932962668794,51.53463366741105],[-0.4195939977164012,51.538685212103104],[-0.4054068163592528,51.54245314866672],[-0.39527311538986104,51.54253417956056],[-0.3987354632210699,51.54788221855408],[-0.38530830943662586,51.551163969754654],[-0.3777924812176603,51.554972421765186]]]}},{"type":"Feature","id":"Havering","properties":{"GSSCode":"E09000016"},"geometry":{"type":"Polygon","coordinates":[[[0.15870253760355446,51.51218810981704],[0.1654583382498156,51.528434804032194],[0.1707785312587463,51.53260789506502],[0.17500090666265955,51.5384826348685],[0.1792232820665728,51.54030582997993],[0.18006775714735546,51.54374964296818],[0.18581018769667734,51.54723397140335],[0.19020145811674716,51.552663041290714],[0.18437458005934693,51.557646441261944],[0.18344565747048602,51.564615098132286],[0.17339640400917256,51.56510128349534],[0.16191154291052856,51.56161695506017],[0.14975110174725847,51.56967952899736],[0.14747101902914528,51.58078076145361],[0.15093336686035408,51.58373838907881],[0.15110226187651066,51.59544735323887],[0.14814659909377137,51.59897219712096],[0.14949775922302366,51.602902195472254],[0.14738657152106704,51.612504356392435],[0.13818179314053614,51.62352455795484],[0.15524018977234566,51.623362496167154],[0.16883623857294627,51.62141775471497],[0.1804055471796685,51.624456413234014],[0.19476162355297344,51.62571239208855],[0.20025071157806063,51.62494259859706],[0.21080665008784372,51.62672527826157],[0.2222915111864877,51.63025012214366],[0.22406490885613128,51.63174919367972],[0.23943435532637536,51.62311940348563],[0.2521859290461933,51.617771364492114],[0.25775946457935883,51.61408445882234],[0.26426192270138515,51.607845079996565],[0.25801280710359364,51.60650807024819],[0.2552260393370108,51.60124106214851],[0.2698354582345507,51.59957992882477],[0.26932877318608106,51.59548786868579],[0.27203109344458554,51.58774941832395],[0.282080346905899,51.57855241187298],[0.29027175518949067,51.564290974556926],[0.31298813486254384,51.565830561539904],[0.3151837700725787,51.55788953394347],[0.3223618082592312,51.55274407218455],[0.32514857602581393,51.55306819575992],[0.33139769162360555,51.545937477101894],[0.3340155643740317,51.54050840721453],[0.32151733317844855,51.54050840721453],[0.3006587986831172,51.53876624299695],[0.2977031359003779,51.5353224300087],[0.27211554095266377,51.53321562676883],[0.26535974030640264,51.53216222514889],[0.26535974030640264,51.524869444703185],[0.2636707901448373,51.51786027238592],[0.2537904316996804,51.51790078783284],[0.2508347689169411,51.52879944305448],[0.24281225564950593,51.524383259340134],[0.2407010679475493,51.52122305448033],[0.2439100732545234,51.51834645774897],[0.23715427260826227,51.519318828475065],[0.2411233054879407,51.51372769680002],[0.24188333306064502,51.507974503337294],[0.22668278160655742,51.50663749358891],[0.22997623442160975,51.49938522859013],[0.22533162147730523,51.4975620334787],[0.2156201580483048,51.496630178199524],[0.20953993746666977,51.48974255222303],[0.19518386109336472,51.48800038800544],[0.18758358536632092,51.4879193571116],[0.18471237009165997,51.4906744075022],[0.18243228737354678,51.49946625948397],[0.1785477020019467,51.505300483840536],[0.16368494058017213,51.51190450168859],[0.15870253760355446,51.51218810981704]]]}},{"type":"Feature","id":"Hillingdon","properties":{"GSSCode":"E09000017"},"geometry":{"type":"Polygon","coordinates":[[[-0.40405565623000056,51.61319311899008],[-0.40211336354420046,51.606872709270476],[-0.4023667060684353,51.60192982474616],[-0.396539828011035,51.59520426055734],[-0.39552645791409585,51.59018034513919],[-0.39214855759096523,51.58847869636852],[-0.3915574250344174,51.581550554945096],[-0.3777924812176603,51.554972421765186],[-0.38530830943662586,51.551163969754654],[-0.3987354632210699,51.54788221855408],[-0.39527311538986104,51.54253417956056],[-0.4054068163592528,51.54245314866672],[-0.4195939977164012,51.538685212103104],[-0.41342932962668794,51.53463366741105],[-0.37618797856417324,51.52879944305448],[-0.3759346360399385,51.52572026908852],[-0.3826059891781214,51.51794130327976],[-0.3902062649051652,51.51372769680002],[-0.39307748017982613,51.507407287080405],[-0.4037178661976875,51.50311264970682],[-0.40692687150466156,51.49970935216549],[-0.41089590438434,51.49780512616022],[-0.41258485454590527,51.48860811970925],[-0.4168072299498185,51.48086966934741],[-0.4158783073609576,51.474022558817836],[-0.4111492469085748,51.46988998323193],[-0.422380765482984,51.466486685690604],[-0.43361228405739316,51.46174637840089],[-0.4366523943482107,51.457694833708835],[-0.4414659023086718,51.45680349387658],[-0.4439993275510197,51.45327864999449],[-0.4586931939566377,51.45631730851353],[-0.47364040288649056,51.458626688988005],[-0.4767649606853863,51.461260193037845],[-0.4870675566709346,51.46142225482553],[-0.493907804825274,51.462718749126985],[-0.5014236330442395,51.467378025522855],[-0.5102906213924574,51.46749957186362],[-0.5052237709077615,51.474103589711675],[-0.5035348207461962,51.480505030325126],[-0.4987213127857351,51.48617719289401],[-0.4986368652776569,51.48917533596614],[-0.48867205932442165,51.495981931048796],[-0.4897698769294391,51.49898007412092],[-0.4861386340820737,51.50092481557311],[-0.48318297129933446,51.5072047098458],[-0.48968542942136084,51.511418316325546],[-0.49238774967986526,51.51709047889443],[-0.4906987995183,51.52681418615537],[-0.4890098493567347,51.52920459752369],[-0.49551230747876107,51.538320573080824],[-0.4866453191305433,51.550029537240874],[-0.4773560932419342,51.555256029893634],[-0.4775249882580907,51.560279945311784],[-0.48124067861353437,51.56096870790944],[-0.48478747395282146,51.566883963159846],[-0.4840274463801171,51.57482499075628],[-0.4881653742759521,51.57648612408003],[-0.48960098191328255,51.5817531321797],[-0.4946678323979784,51.5845081825703],[-0.4995657878665178,51.592084571144454],[-0.50091694799577,51.60010662963473],[-0.49635678255954374,51.602578071896886],[-0.4992279978342047,51.60906054340418],[-0.4954278599706828,51.61902734334665],[-0.5002413679311439,51.62218754820646],[-0.4976234951807177,51.62668476281465],[-0.5003258154392222,51.62871053516068],[-0.49635678255954374,51.63174919367972],[-0.49154327459908265,51.63077682295363],[-0.48858761181634336,51.62717094817769],[-0.4766805131773081,51.62190394007801],[-0.4691646849583425,51.61683950921294],[-0.45742648133546376,51.61234229460475],[-0.4491506255437938,51.615178375889194],[-0.44551938269642843,51.61967559049738],[-0.43808800198554115,51.61987816773198],[-0.42685648341113197,51.61708260189447],[-0.41630054490134893,51.61635332384989],[-0.4113181419247313,51.61384136614082],[-0.40405565623000056,51.61319311899008]]]}},{"type":"Feature","id":"Harrow","properties":{"GSSCode":"E09000015"},"geometry":{"type":"Polygon","coordinates":[[[-0.40405565623000056,51.61319311899008],[-0.38691281209011286,51.6155835303584],[-0.36664541015132934,51.62085053845808],[-0.35972071448891163,51.62526672217243],[-0.3492492234872069,51.62688734004925],[-0.3398755500905195,51.6307363075067],[-0.33827104743703246,51.629480328652164],[-0.3308396667261452,51.63486888309261],[-0.31910146310326637,51.63855578876238],[-0.316736932877075,51.640541045661486],[-0.3044920442057266,51.63632743918175],[-0.30398535915725705,51.631465585551275],[-0.2671662456351337,51.60039023776318],[-0.27653991903182107,51.5965007548588],[-0.2903893103566565,51.593583642680514],[-0.28397129974270835,51.59022086058611],[-0.2824512445972996,51.585034883380274],[-0.30305643656839615,51.5872632329609],[-0.3131056900297096,51.58426508988878],[-0.32019928070828385,51.58041612243132],[-0.32670173883031023,51.57875498910758],[-0.3221415733940839,51.56963901355044],[-0.32974184912112775,51.56708654039445],[-0.328221793975719,51.56250829489242],[-0.335568727178528,51.55659303964201],[-0.342577870349024,51.55748437947427],[-0.34756027332564154,51.559672213607975],[-0.3624230347474161,51.557281802239665],[-0.3625074822554944,51.55602582338512],[-0.3758501885318602,51.55306819575992],[-0.3777924812176603,51.554972421765186],[-0.3915574250344174,51.581550554945096],[-0.39214855759096523,51.58847869636852],[-0.39552645791409585,51.59018034513919],[-0.396539828011035,51.59520426055734],[-0.4023667060684353,51.60192982474616],[-0.40211336354420046,51.606872709270476],[-0.40405565623000056,51.61319311899008]]]}},{"type":"Feature","id":"Brent","properties":{"GSSCode":"E09000005"},"geometry":{"type":"Polygon","coordinates":[[[-0.2159910557397054,51.52790810322223],[-0.22848928693528853,51.53033903003747],[-0.23440061250076705,51.53264841051194],[-0.2435209433732196,51.53179758612661],[-0.24630771113980238,51.5327699568527],[-0.2577925722384463,51.5353224300087],[-0.26657511307858583,51.530501091825144],[-0.2805933994195777,51.528475319479114],[-0.28937594025971725,51.53167603978584],[-0.28405574725078664,51.53349923489727],[-0.27924223929032554,51.533053564981145],[-0.27848221171762116,51.53536294545562],[-0.2824512445972996,51.538685212103104],[-0.2887848077031694,51.53609222350019],[-0.2957939508736654,51.5353224300087],[-0.30271864653608305,51.53200016336121],[-0.3063498893834484,51.53382335847264],[-0.3071943644642311,51.54524871450425],[-0.31276789999739657,51.5493002591963],[-0.3279684514514842,51.55529654534055],[-0.335568727178528,51.55659303964201],[-0.328221793975719,51.56250829489242],[-0.32974184912112775,51.56708654039445],[-0.3221415733940839,51.56963901355044],[-0.32670173883031023,51.57875498910758],[-0.32019928070828385,51.58041612243132],[-0.3131056900297096,51.58426508988878],[-0.30305643656839615,51.5872632329609],[-0.2824512445972996,51.585034883380274],[-0.28397129974270835,51.59022086058611],[-0.2903893103566565,51.593583642680514],[-0.27653991903182107,51.5965007548588],[-0.2671662456351337,51.60039023776318],[-0.24825000382560242,51.58434612078262],[-0.25441467191531575,51.58151003949818],[-0.2513745616244982,51.57316385743253],[-0.2531479592941418,51.572515610281805],[-0.24698329120442847,51.56862612737743],[-0.24672994868019366,51.57146220866187],[-0.24149420317934128,51.57271818751641],[-0.23347168991190614,51.57198890947184],[-0.22198682881326215,51.56295396480854],[-0.21354207800543573,51.55517499899979],[-0.19150127839700865,51.536294800734794],[-0.19656812888170455,51.5276650105407],[-0.20298613949565264,51.53289150319346],[-0.21523102816700102,51.5313924316574],[-0.2159910557397054,51.52790810322223]]]}},{"type":"Feature","id":"Barnet","properties":{"GSSCode":"E09000003"},"geometry":{"type":"Polygon","coordinates":[[[-0.18212760500032127,51.66861825037746],[-0.18592774286384317,51.66282454146782],[-0.15476661238296358,51.65553176102211],[-0.15172650209214605,51.64536238384504],[-0.14792636422862415,51.64208063264447],[-0.1451395964620414,51.64264784890136],[-0.14142390610659777,51.638474757868536],[-0.1291790174352494,51.63227589448969],[-0.13542813303304096,51.62170136284341],[-0.14454846390549358,51.61550249946456],[-0.1388060333561716,51.61019497591796],[-0.1434506463004761,51.60885796616958],[-0.14209948617122387,51.60330734994146],[-0.1444640163974153,51.60010662963473],[-0.151388712059833,51.59743261013797],[-0.15333100474563305,51.60265910279073],[-0.1567933525768419,51.604927967818284],[-0.1616913080453813,51.597675702819494],[-0.15746893264146805,51.58657447036325],[-0.16574478843313795,51.58321168826885],[-0.17131832396630342,51.572434579387966],[-0.17444288176519923,51.56923385908124],[-0.1780741246125646,51.570449322488855],[-0.18989677574352165,51.564939221707654],[-0.19074125082430426,51.56181953229477],[-0.1985104215675046,51.558740358328805],[-0.20019937172906993,51.556187885172804],[-0.20585735477031364,51.55529654534055],[-0.20999528266614859,51.556755101429694],[-0.21354207800543573,51.55517499899979],[-0.22198682881326215,51.56295396480854],[-0.23347168991190614,51.57198890947184],[-0.24149420317934128,51.57271818751641],[-0.24672994868019366,51.57146220866187],[-0.24698329120442847,51.56862612737743],[-0.2531479592941418,51.572515610281805],[-0.2513745616244982,51.57316385743253],[-0.25441467191531575,51.58151003949818],[-0.24825000382560242,51.58434612078262],[-0.2671662456351337,51.60039023776318],[-0.30398535915725705,51.631465585551275],[-0.3044920442057266,51.63632743918175],[-0.29613174090597844,51.63543609934949],[-0.27417538880562964,51.63892042778467],[-0.2729086761844557,51.64208063264447],[-0.2632816602635335,51.644835683035076],[-0.25737033469805504,51.64183753996295],[-0.2510367715921852,51.64945444398402],[-0.24985450647908947,51.654599905742934],[-0.23828519787236724,51.65824629596579],[-0.22891152447567986,51.65998846018338],[-0.2264625467414102,51.657152378898935],[-0.22029787865169687,51.66047464554642],[-0.20788409496419197,51.66286505691474],[-0.2111775477792443,51.66695711705372],[-0.20796854247227026,51.66659247803143],[-0.20340837703604397,51.67011732191352],[-0.1948791787201392,51.668294126802095],[-0.19665257638978278,51.66549856096458],[-0.1910790408566173,51.663877943087755],[-0.18778558804156503,51.66788897233289],[-0.18212760500032127,51.66861825037746]]]}},{"type":"Feature","id":"Lambeth","properties":{"GSSCode":"E09000022"},"geometry":{"type":"Polygon","coordinates":[[[-0.12841898986254502,51.48504276038024],[-0.12428106196671007,51.48775729532392],[-0.12115650416781426,51.49492852942886],[-0.11938310649817074,51.503841927751395],[-0.11592075866696189,51.507366771633485],[-0.10891161549646594,51.50846068870034],[-0.10595595271372665,51.50201873263997],[-0.11085390818226598,51.495414714791906],[-0.10485813510870923,51.49351048878664],[-0.10316918494714394,51.49116059286525],[-0.1084893779560746,51.48585306931865],[-0.10401366002792656,51.48091018479433],[-0.1082360354318398,51.480261937643604],[-0.0999601796401699,51.47685864010227],[-0.10063575970479599,51.47426565149936],[-0.09599114676049142,51.46988998323193],[-0.09303548397775219,51.471996786471806],[-0.0900798211950129,51.466203077562156],[-0.09067095375156076,51.463285965383875],[-0.0958222517443349,51.45741122558039],[-0.10097354973710904,51.45416998982674],[-0.10080465472095251,51.45036153781621],[-0.09607559426856971,51.44675566304027],[-0.09058650624348252,51.43646473952244],[-0.08788418598497805,51.42909092818289],[-0.07834161757213415,51.420623199776486],[-0.07851051258829067,51.41985340628499],[-0.08644857834764752,51.4192861900281],[-0.0938799590585348,51.4228110339102],[-0.11271175335998784,51.423256703826326],[-0.11946755400624898,51.41900258189966],[-0.12495664203133616,51.41328990388386],[-0.12774340979791893,51.41231753315776],[-0.13407697290378878,51.410980523409386],[-0.14269061872777172,51.41333041933078],[-0.14809525924478067,51.41288474941465],[-0.14041053600965858,51.419245674581184],[-0.13787711076731068,51.42110938513953],[-0.13838379581578025,51.430549484272035],[-0.13525923801688444,51.43034690703743],[-0.1396505084369542,51.43533030700866],[-0.1359348180815106,51.44201535575056],[-0.14361954131663263,51.44185329396288],[-0.14556183400243272,51.44537813784497],[-0.14235282869545868,51.451009784966935],[-0.14775746921246763,51.45234679471531],[-0.15079757950328515,51.46304287270235],[-0.15062868448712863,51.46762111820438],[-0.13568147555727578,51.47272606451637],[-0.12841898986254502,51.48504276038024]]]}},{"type":"Feature","id":"Southwark","properties":{"GSSCode":"E09000028"},"geometry":{"type":"Polygon","coordinates":[[[-0.10891161549646594,51.50846068870034],[-0.09556890922010014,51.50833914235958],[-0.08104393783063862,51.505908215544345],[-0.06381664618267263,51.500722238338504],[-0.057314188060646254,51.50084378467927],[-0.05047393990630683,51.50303161881298],[-0.04439371932467179,51.50692110171736],[-0.03561117848453227,51.50688058627044],[-0.032402173177558224,51.504206566773675],[-0.032402173177558224,51.493064818870515],[-0.040593581461149886,51.492781210742066],[-0.04253587414694998,51.49022873758607],[-0.05199399505171559,51.48913482051922],[-0.05435852527790702,51.47860080431986],[-0.05266957511634174,51.47799307261605],[-0.0513184149870895,51.467378025522855],[-0.04633601201047188,51.464420397897655],[-0.04616711699431536,51.45696555566426],[-0.04160695155808908,51.45498029876515],[-0.04616711699431536,51.449875352453155],[-0.05393628773751569,51.448700404492456],[-0.057567530584881066,51.45032102236928],[-0.0637321986745944,51.44452731345964],[-0.06356330365843788,51.43747762569545],[-0.06601228139270754,51.434398451729486],[-0.07209250197434258,51.43249422572422],[-0.0751326122651601,51.428807320054446],[-0.07395034715206439,51.42613330055769],[-0.07834161757213415,51.420623199776486],[-0.08788418598497805,51.42909092818289],[-0.09058650624348252,51.43646473952244],[-0.09607559426856971,51.44675566304027],[-0.10080465472095251,51.45036153781621],[-0.10097354973710904,51.45416998982674],[-0.0958222517443349,51.45741122558039],[-0.09067095375156076,51.463285965383875],[-0.0900798211950129,51.466203077562156],[-0.09303548397775219,51.471996786471806],[-0.09599114676049142,51.46988998323193],[-0.10063575970479599,51.47426565149936],[-0.0999601796401699,51.47685864010227],[-0.1082360354318398,51.480261937643604],[-0.10401366002792656,51.48091018479433],[-0.1084893779560746,51.48585306931865],[-0.10316918494714394,51.49116059286525],[-0.10485813510870923,51.49351048878664],[-0.11085390818226598,51.495414714791906],[-0.10595595271372665,51.50201873263997],[-0.10891161549646594,51.50846068870034]]]}},{"type":"Feature","id":"Lewisham","properties":{"GSSCode":"E09000023"},"geometry":{"type":"Polygon","coordinates":[[[-0.032402173177558224,51.493064818870515],[-0.024886344958592654,51.48552894574328],[-0.026406400104001415,51.48151791649814],[-0.023112947288949137,51.479613690492876],[-0.017117174215392328,51.48042399943129],[-0.02277515725663609,51.47535956856621],[-0.019143914409270713,51.469930498678856],[-0.013148141335713903,51.46891761250584],[-0.015174881529592232,51.471753693790276],[-0.008165738359096286,51.47276657996329],[0.000025669924495375085,51.47183472468412],[0.01497287885434817,51.47309070353866],[0.016324038983600464,51.46899864339968],[0.009061553288869706,51.465878953986795],[0.01151053102313937,51.456600916641975],[0.01750630409669618,51.455061329658996],[0.021897574516765883,51.448943497173985],[0.021475336976374604,51.44274463379513],[0.02932895522765322,51.441691232175195],[0.028822270179183596,51.438774119996914],[0.024768789791426826,51.43824741918694],[0.025359922347974684,51.43569494603095],[0.03372022564772292,51.43168391678581],[0.03768925852740135,51.43334505010955],[0.038702628624340485,51.42463422902163],[0.03616920338199259,51.42236536399407],[0.02544436985605303,51.42896938184213],[0.021053099435983214,51.426822063155335],[0.014128403773565501,51.42617381600461],[0.008048183191930458,51.42305412659172],[0.005599205457660794,51.41843536564277],[0.0017146200860606031,51.418556911983536],[-0.0008188051562872944,51.41588289248678],[-0.010530268585287716,51.41353299656538],[-0.017961649296174997,51.415072583548366],[-0.02252181473240128,51.41754402581052],[-0.02091731207891423,51.42094732335185],[-0.030206537967523373,51.42568763064156],[-0.037469023662254075,51.42499886804391],[-0.043718139260045696,51.42289206480404],[-0.056807503012176686,51.42297309569788],[-0.06288772359381173,51.42524196072544],[-0.07395034715206439,51.42613330055769],[-0.0751326122651601,51.428807320054446],[-0.07209250197434258,51.43249422572422],[-0.06601228139270754,51.434398451729486],[-0.06356330365843788,51.43747762569545],[-0.0637321986745944,51.44452731345964],[-0.057567530584881066,51.45032102236928],[-0.05393628773751569,51.448700404492456],[-0.04616711699431536,51.449875352453155],[-0.04160695155808908,51.45498029876515],[-0.04616711699431536,51.45696555566426],[-0.04633601201047188,51.464420397897655],[-0.0513184149870895,51.467378025522855],[-0.05266957511634174,51.47799307261605],[-0.05435852527790702,51.47860080431986],[-0.05199399505171559,51.48913482051922],[-0.04253587414694998,51.49022873758607],[-0.040593581461149886,51.492781210742066],[-0.032402173177558224,51.493064818870515]]]}},{"type":"Feature","id":"Greenwich","properties":{"GSSCode":"E09000011"},"geometry":{"type":"MultiPolygon","coordinates":[[[[-0.024886344958592654,51.48552894574328],[-0.01880612437695761,51.48350317339725],[-0.017117174215392328,51.48042399943129],[-0.023112947288949137,51.479613690492876],[-0.026406400104001415,51.48151791649814],[-0.024886344958592654,51.48552894574328]]],[[[0.12019447391986582,51.511458831772465],[0.12120784401680496,51.491322654652926],[0.1222212141137442,51.48184204007351],[0.12416350679954424,51.47681812465535],[0.11842107625022225,51.47892492789523],[0.11200306563627416,51.47309070353866],[0.10820292777275231,51.476129362057705],[0.10203825968303892,51.47446822873396],[0.09823812181951708,51.47548111490698],[0.08481096803507293,51.46871503527124],[0.08227754279272503,51.46664874747828],[0.08286867534927289,51.45984215239562],[0.07864629994535965,51.45927493613873],[0.0856554431158556,51.456641432088894],[0.0879355258339688,51.44659360125259],[0.08734439327742094,51.44323081915818],[0.0808419351553945,51.44039473787374],[0.07535284713030732,51.432008040361175],[0.06336130098319381,51.42426958999934],[0.05863224053081095,51.4245937135747],[0.03971599872127973,51.44100246957755],[0.030342325324592356,51.444324736225035],[0.02932895522765322,51.441691232175195],[0.021475336976374604,51.44274463379513],[0.021897574516765883,51.448943497173985],[0.01750630409669618,51.455061329658996],[0.01151053102313937,51.456600916641975],[0.009061553288869706,51.465878953986795],[0.016324038983600464,51.46899864339968],[0.01497287885434817,51.47309070353866],[0.000025669924495375085,51.47183472468412],[-0.008165738359096286,51.47276657996329],[-0.015174881529592232,51.471753693790276],[-0.013148141335713903,51.46891761250584],[-0.019143914409270713,51.469930498678856],[-0.02277515725663609,51.47535956856621],[-0.015090434021513999,51.481639462838906],[-0.017792754280018475,51.48326008071573],[-0.007236815770235383,51.483786781525694],[0.00011011743257360873,51.48686595549166],[0.0026435426749216173,51.49180884001598],[-0.0003121201078176705,51.49525265300423],[-0.0013254902047569184,51.503355742388344],[0.005176967917269515,51.50428759766752],[0.01497287885434817,51.49622502373032],[0.023839867202565923,51.493956158702765],[0.040222683769749246,51.49545523023883],[0.06243237839433291,51.494482859512736],[0.07661955975148127,51.496265539177244],[0.08236199030080327,51.49898007412092],[0.09198900622172546,51.50898738951031],[0.10685176764350002,51.509392543979516],[0.12019447391986582,51.511458831772465]]]]}},{"type":"Feature","id":"Bexley","properties":{"GSSCode":"E09000004"},"geometry":{"type":"Polygon","coordinates":[[[0.12019447391986582,51.511458831772465],[0.1250079818803269,51.51303893420237],[0.13227046757505767,51.5123096561578],[0.14468425126256257,51.507447802527324],[0.160138145240885,51.50558409196898],[0.16672505087098966,51.503355742388344],[0.17204524387992026,51.49650863185877],[0.17255192892838989,51.48877018149693],[0.17804101695347707,51.48350317339725],[0.18420568504319035,51.48086966934741],[0.19425493850450382,51.47928956691751],[0.21207336270901767,51.482611833565],[0.21764689824218308,51.48042399943129],[0.21621129060485267,51.47738534091224],[0.211228887628235,51.475278537672374],[0.20810432982933924,51.470862353958026],[0.21097554510400018,51.46847194258971],[0.2102999650393741,51.46263771823315],[0.20244634678809548,51.458302565412644],[0.20278413682040852,51.453967412592135],[0.19298822588332987,51.45169854756458],[0.18758358536632092,51.448700404492456],[0.18429013255126858,51.4446488598004],[0.17592982925152045,51.44201535575056],[0.17272082394454635,51.44302824192358],[0.1666406033629113,51.43504669888022],[0.16393828310440683,51.42892886639521],[0.15583132232889352,51.430873607847396],[0.1534667921027021,51.42337825016708],[0.15110226187651066,51.42042062254188],[0.14915996919071062,51.412439079498526],[0.1537201346269369,51.41126413153783],[0.1489066266664758,51.4084685657003],[0.12906146226808357,51.41491052176068],[0.11352312078168292,51.413087326649254],[0.1070206626596566,51.41426227460995],[0.09004671353592542,51.423337734720164],[0.08261533282503808,51.43022536069667],[0.07535284713030732,51.432008040361175],[0.0808419351553945,51.44039473787374],[0.08734439327742094,51.44323081915818],[0.0879355258339688,51.44659360125259],[0.0856554431158556,51.456641432088894],[0.07864629994535965,51.45927493613873],[0.08286867534927289,51.45984215239562],[0.08227754279272503,51.46664874747828],[0.08481096803507293,51.46871503527124],[0.09823812181951708,51.47548111490698],[0.10203825968303892,51.47446822873396],[0.10820292777275231,51.476129362057705],[0.11200306563627416,51.47309070353866],[0.11842107625022225,51.47892492789523],[0.12416350679954424,51.47681812465535],[0.1222212141137442,51.48184204007351],[0.12120784401680496,51.491322654652926],[0.12019447391986582,51.511458831772465]]]}},{"type":"Feature","id":"Enfield","properties":{"GSSCode":"E09000010"},"geometry":{"type":"Polygon","coordinates":[[[-0.012303666254931234,51.64621320823037],[-0.015428224053827044,51.635274037561814],[-0.02530858249898399,51.62234960999414],[-0.03273996320987127,51.616312808402974],[-0.03561117848453227,51.61201817102939],[-0.034006675831045274,51.60942518242647],[-0.041438056541932555,51.60561673041593],[-0.05562523789908097,51.6088984816165],[-0.06711009899772497,51.608938997063426],[-0.06711009899772497,51.608938997063426],[-0.08585744579109972,51.608452811700374],[-0.09556890922010014,51.609263120638786],[-0.10696932281066585,51.60829074991269],[-0.12352103439400569,51.6086959043819],[-0.13500589549264969,51.61120786209098],[-0.1388060333561716,51.61019497591796],[-0.14454846390549358,51.61550249946456],[-0.13542813303304096,51.62170136284341],[-0.1291790174352494,51.63227589448969],[-0.14142390610659777,51.638474757868536],[-0.1451395964620414,51.64264784890136],[-0.14792636422862415,51.64208063264447],[-0.15172650209214605,51.64536238384504],[-0.15476661238296358,51.65553176102211],[-0.18592774286384317,51.66282454146782],[-0.18212760500032127,51.66861825037746],[-0.17570959438637318,51.67315598043257],[-0.17250058907939914,51.67307494953873],[-0.16363360073118133,51.68239350233047],[-0.1635491532231031,51.688106180346274],[-0.14986865691442425,51.685513191743354],[-0.13466810546033658,51.68879494294392],[-0.12174763672436212,51.6885518502624],[-0.11228951581959651,51.691023292524555],[-0.10418255504408308,51.69179308601605],[-0.09480888164739576,51.69009143724538],[-0.08585744579109972,51.690172468139224],[-0.07901719763676024,51.688916489284686],[-0.06635007142502058,51.68385205841961],[-0.06102987841608992,51.682879687693514],[-0.05148731000324602,51.68356845029116],[-0.02767311272517542,51.682231440542786],[-0.011121401141835574,51.680853915347484],[-0.010361373569131138,51.67639721618622],[-0.011543638682226853,51.663918458534674],[-0.008925765931800722,51.6602315528649],[-0.011881428714539954,51.652574133396904],[-0.012303666254931234,51.64621320823037]]]}},{"type":"Feature","id":"Waltham Forest","properties":{"GSSCode":"E09000031"},"geometry":{"type":"Polygon","coordinates":[[[0.020377519371357122,51.55626891606665],[0.01691517154014832,51.55318974210068],[0.014550641313956891,51.554972421765186],[0.009483790829260985,51.55124500064849],[0.0030657802153128966,51.552095825033824],[-0.00867242340756591,51.54990799090011],[-0.01061471609336595,51.552622525843795],[-0.017201621723470617,51.55156912422386],[-0.018468334344644566,51.55517499899979],[-0.029362062886740703,51.56133334693172],[-0.03333109576641913,51.56060406888715],[-0.047349382107411075,51.562791903020866],[-0.04675824955086322,51.56445303634461],[-0.05824311064950716,51.5723130330472],[-0.061198773432246445,51.577782618381484],[-0.06229659103726387,51.579524782599066],[-0.052162890067872114,51.587992511005474],[-0.05351405019712435,51.58989673701074],[-0.05064283492246335,51.59654127030572],[-0.041438056541932555,51.60561673041593],[-0.034006675831045274,51.60942518242647],[-0.03561117848453227,51.61201817102939],[-0.03273996320987127,51.616312808402974],[-0.02530858249898399,51.62234960999414],[-0.015428224053827044,51.635274037561814],[-0.012303666254931234,51.64621320823037],[-0.007405710786391961,51.64617269278345],[-0.008334633375252865,51.64366073507438],[-0.00048101512397424884,51.64353918873361],[0.0008701450052780446,51.64179702451603],[0.018097436653243926,51.640257437533045],[0.02265760208947032,51.641108261918376],[0.025613264872209496,51.63482836764568],[0.02181312700868765,51.628832081501436],[0.01885746422594836,51.623240949826396],[0.014466193805878658,51.61890579700589],[0.008639315748478316,51.61906785879357],[0.01623959147552212,51.61683950921294],[0.02139088946829626,51.61112683119713],[0.012946138660469897,51.599053228014796],[0.012101663579687227,51.59216560203829],[0.013368376200861176,51.58377890452573],[0.017421856588617834,51.577458494806116],[0.016324038983600464,51.57292076475101],[0.01902635924210494,51.5670055095006],[0.014466193805878658,51.56558746885838],[0.014212851281643846,51.56133334693172],[0.020377519371357122,51.55626891606665]]]}},{"type":"Feature","id":"Redbridge","properties":{"GSSCode":"E09000026"},"geometry":{"type":"Polygon","coordinates":[[[0.06935707405675062,51.54411428199047],[0.06834370395981137,51.54439789011891],[0.06783701891134175,51.55306819575992],[0.06361464350742863,51.557322317686584],[0.060152295676219714,51.556430977854326],[0.054409865126897716,51.559672213607975],[0.05035638473914106,51.56400736642848],[0.041911633931314585,51.56145489327248],[0.04613400933522782,51.55485087542443],[0.03498693826889687,51.55521551444671],[0.025359922347974684,51.554081081932935],[0.020377519371357122,51.55626891606665],[0.014212851281643846,51.56133334693172],[0.014466193805878658,51.56558746885838],[0.01902635924210494,51.5670055095006],[0.016324038983600464,51.57292076475101],[0.017421856588617834,51.577458494806116],[0.013368376200861176,51.58377890452573],[0.012101663579687227,51.59216560203829],[0.012946138660469897,51.599053228014796],[0.02139088946829626,51.61112683119713],[0.01623959147552212,51.61683950921294],[0.008639315748478316,51.61906785879357],[0.014466193805878658,51.61890579700589],[0.01885746422594836,51.623240949826396],[0.02181312700868765,51.628832081501436],[0.029075612703418408,51.62510466038474],[0.04089826383437545,51.615664561252245],[0.053227600013802,51.61841961164284],[0.048751882085654064,51.61359827345929],[0.06293906344280242,51.606913224717395],[0.07281942188795942,51.60468487513676],[0.07881519496151623,51.606994255611234],[0.08709105075318613,51.60448229790216],[0.09258013877827331,51.60618394667282],[0.09477577398830817,51.61076219217485],[0.09224234874596027,51.61355775801237],[0.0980692268033605,51.615421468570716],[0.10018041450531712,51.61270693362704],[0.10963853541008273,51.613962912481576],[0.11673212608865702,51.61692054010678],[0.11858997126637882,51.6153809531238],[0.12416350679954424,51.61748775636367],[0.12914590977616192,51.62145827016189],[0.13818179314053614,51.62352455795484],[0.14738657152106704,51.612504356392435],[0.14949775922302366,51.602902195472254],[0.14814659909377137,51.59897219712096],[0.14654209644028438,51.59941786703708],[0.1295681473165532,51.590058798798424],[0.13100375495388372,51.58750632564243],[0.1263591420095791,51.58673653215094],[0.12779474964690962,51.58163158583894],[0.13252381009929248,51.581307462263574],[0.12914590977616192,51.57632406229234],[0.13159488751043158,51.57182684768416],[0.12931480479231838,51.56647880869064],[0.1190122088067701,51.56307551114931],[0.1171543636290483,51.55687664777046],[0.11107414304741325,51.55250097950303],[0.09350906136713422,51.545856446208056],[0.09224234874596027,51.54861149659865],[0.07822406240496838,51.54427634377815],[0.06969486408906367,51.54407376654355],[0.06935707405675062,51.54411428199047]]]}},{"type":"Feature","id":"Sutton","properties":{"GSSCode":"E09000029"},"geometry":{"type":"Polygon","coordinates":[[[-0.15654001005260715,51.3215224166087],[-0.16422473328772919,51.326060146663814],[-0.16312691568271176,51.33027375314355],[-0.17292282661979047,51.33003066046203],[-0.17418953924096442,51.33323138076876],[-0.18744779800925193,51.340686223002145],[-0.19732815645440893,51.34360333518043],[-0.20298613949565264,51.33983539861681],[-0.2130353929569661,51.33554076124323],[-0.21413321056198353,51.3303547840374],[-0.220973458716323,51.329868598674345],[-0.22984044706454076,51.336513131969326],[-0.21725776836087934,51.34340075794583],[-0.22198682881326215,51.35154436277686],[-0.2235068839586709,51.35843198875337],[-0.22688478428180153,51.36260507978619],[-0.23710293275927152,51.366899717159775],[-0.2454632360590197,51.36685920171285],[-0.2445343134701588,51.370465076488784],[-0.24504099851862837,51.38002672196205],[-0.23870743541275857,51.38610403900014],[-0.2397208055096977,51.38930475930686],[-0.23465395502500186,51.39052022271448],[-0.23372503243614096,51.38756259508928],[-0.22772925936258415,51.38395672031334],[-0.218102243441662,51.38014826830281],[-0.20982638764999206,51.388251357686926],[-0.20053716176138298,51.38488857559252],[-0.1939502561312783,51.387886718664646],[-0.1883767205981129,51.38541527640248],[-0.178834152185269,51.39011506824527],[-0.1748651193055905,51.393437334892766],[-0.1664203684977641,51.389709913776066],[-0.16532255089274667,51.387967749558484],[-0.144379568889337,51.39068228450216],[-0.14193059115506734,51.389345274753786],[-0.13441476293610183,51.390884861736765],[-0.12951680746756244,51.38719795606699],[-0.12808119983023197,51.38051290732509],[-0.12132539918397078,51.36475239847298],[-0.12183208423244041,51.359080235904095],[-0.11693412876390102,51.34575065386722],[-0.12681448720905802,51.34485931403497],[-0.1275745147817624,51.34745230263788],[-0.14463291141357182,51.342104263644366],[-0.1475885741963111,51.33878199699688],[-0.14404177885702396,51.33067890761276],[-0.14936197186595462,51.32877468160749],[-0.1444640163974153,51.32646530113302],[-0.14556183400243272,51.32350767350781],[-0.15654001005260715,51.3215224166087]]]}},{"type":"Feature","id":"Richmond upon Thames","properties":{"GSSCode":"E09000027"},"geometry":{"type":"Polygon","coordinates":[[[-0.3217193358536926,51.465392768623744],[-0.3145412976670401,51.46000421418331],[-0.30660323190768324,51.45668194753582],[-0.30381646414110053,51.45315710365372],[-0.3093055521661877,51.448457311810934],[-0.31825698802248376,51.4464315394649],[-0.3267861863383885,51.445783292314175],[-0.33168414180692785,51.4391387590192],[-0.3262795012899189,51.43168391678581],[-0.3302485341695973,51.44120504681215],[-0.3221415733940839,51.44525659150421],[-0.3136968225862575,51.446309993124146],[-0.30575875682690057,51.44882195083322],[-0.30280309404416134,51.451293393095376],[-0.3045764917138049,51.45607421583201],[-0.31927035811942295,51.464136789769206],[-0.3186792255628751,51.47013307591345],[-0.3077010495127007,51.47446822873396],[-0.2975673485433089,51.48338162705649],[-0.29055820537281296,51.48625822378786],[-0.28481577482349096,51.48609616200017],[-0.2769621565722124,51.48099121568818],[-0.27324646621676874,51.474670805968564],[-0.2678418256997598,51.47122699298031],[-0.26024154997271604,51.470295137701136],[-0.2549213569637853,51.471510601108754],[-0.24993895398716776,51.47564317669466],[-0.2483344513336807,51.48394884331338],[-0.24107196563894995,51.488365027027726],[-0.23076936965340167,51.48759523353623],[-0.2280670493948972,51.48512379127408],[-0.22629365172525368,51.47544059946006],[-0.22342243645059268,51.471510601108754],[-0.2330494523715148,51.47211833281256],[-0.23330279489574962,51.46397472798152],[-0.24301425832475004,51.46519019138914],[-0.252894616769907,51.46523070683606],[-0.25804591476268113,51.46028782231175],[-0.25914373236769855,51.45493978331823],[-0.2473210812367415,51.44918658985551],[-0.2416630981954978,51.443149788264336],[-0.2540768818830027,51.43727504846085],[-0.2709663834986556,51.42953659809902],[-0.28042450440342126,51.421838663184104],[-0.28658917249313454,51.42017752986036],[-0.29064265288089125,51.42900989728905],[-0.293429420647474,51.426497939579974],[-0.3015363814229874,51.430549484272035],[-0.3064343368915267,51.43014432980283],[-0.31065671229543995,51.43221061759578],[-0.31445685015896185,51.428240103797556],[-0.30854552459348333,51.42516092983159],[-0.3060120993511354,51.42147402416182],[-0.30846107708540504,51.41462691363224],[-0.30964334219850076,51.4000008372939],[-0.3177503029740142,51.39368042757429],[-0.3277151089272494,51.39177620156902],[-0.3412267102197717,51.40336361938831],[-0.34384458297019793,51.40397135109212],[-0.3598051619969899,51.41203392502932],[-0.3664765151351728,51.41114258519706],[-0.3731478682733557,51.40859011204107],[-0.3794814313792256,51.407820318549575],[-0.38378825429121705,51.41012969902405],[-0.38969957985669557,51.41069691528094],[-0.3902907124132434,51.41434330550379],[-0.3861527845174085,51.41426227460995],[-0.38767283966281724,51.41932670547503],[-0.39138853001826085,51.42232484854715],[-0.38547720445278233,51.42074474611725],[-0.38412604432353015,51.422689487569436],[-0.38809507720320857,51.42787546477527],[-0.3832815692427475,51.43212958670193],[-0.37610353105609495,51.435532884243266],[-0.3778769287257385,51.4367888630978],[-0.3668143051674859,51.441650716728276],[-0.3712055755875556,51.4432713346051],[-0.3778769287257385,51.44242051021977],[-0.38623723202548677,51.44671514759335],[-0.3877572871708955,51.44942968253703],[-0.38378825429121705,51.44951071343087],[-0.37306342076527743,51.45749225647423],[-0.35642726167385935,51.4584241117534],[-0.3479825108660329,51.45680349387658],[-0.3401288926147543,51.459234420691814],[-0.33700433481585845,51.45461565974286],[-0.33143079928269303,51.45728967923963],[-0.3256039212252928,51.45797844183728],[-0.32670173883031023,51.46174637840089],[-0.3217193358536926,51.465392768623744]]]}},{"type":"Feature","id":"Merton","properties":{"GSSCode":"E09000024"},"geometry":{"type":"Polygon","coordinates":[[[-0.13441476293610183,51.390884861736765],[-0.14193059115506734,51.389345274753786],[-0.144379568889337,51.39068228450216],[-0.16532255089274667,51.387967749558484],[-0.1664203684977641,51.389709913776066],[-0.1748651193055905,51.393437334892766],[-0.178834152185269,51.39011506824527],[-0.1883767205981129,51.38541527640248],[-0.1939502561312783,51.387886718664646],[-0.20053716176138298,51.38488857559252],[-0.20982638764999206,51.388251357686926],[-0.218102243441662,51.38014826830281],[-0.22772925936258415,51.38395672031334],[-0.23372503243614096,51.38756259508928],[-0.23465395502500186,51.39052022271448],[-0.2397208055096977,51.38930475930686],[-0.2416630981954978,51.39388300480889],[-0.2474055287448198,51.397569910478666],[-0.24470320848631533,51.40437650556132],[-0.24985450647908947,51.41649062419059],[-0.2523879317214374,51.42629536234537],[-0.2542457768991592,51.42921247452365],[-0.2511212191002634,51.43257525661806],[-0.23136050220994953,51.438125872846186],[-0.2242669115313753,51.43885515089075],[-0.21573771321547058,51.4377612338239],[-0.2054351172299223,51.438774119996914],[-0.19006567075967817,51.44144813949367],[-0.1910790408566173,51.43306144198111],[-0.18575884784768665,51.43318298832187],[-0.184576582734591,51.42763237209375],[-0.18195870998416475,51.424715259915466],[-0.161606860537303,51.41985340628499],[-0.15991791037573772,51.422648972122516],[-0.1444640163974153,51.417746603045124],[-0.14041053600965858,51.419245674581184],[-0.14809525924478067,51.41288474941465],[-0.14269061872777172,51.41333041933078],[-0.13407697290378878,51.410980523409386],[-0.12774340979791893,51.41231753315776],[-0.13247247025030173,51.408387534806465],[-0.13120575762912778,51.404011866539044],[-0.12453440449094488,51.39740784869098],[-0.13441476293610183,51.390884861736765]]]}},{"type":"Feature","id":"Wandsworth","properties":{"GSSCode":"E09000032"},"geometry":{"type":"Polygon","coordinates":[[[-0.22342243645059268,51.471510601108754],[-0.21337318298927915,51.46583843853987],[-0.19994602920483512,51.462759264573904],[-0.18846116810619112,51.4637316353],[-0.18398545017804313,51.465392768623744],[-0.1784963621529559,51.47078132306419],[-0.174696224289434,51.478479257979096],[-0.16785597613509456,51.481072246582016],[-0.1492775243578764,51.48366523518494],[-0.13737042571884106,51.48273337990576],[-0.12841898986254502,51.48504276038024],[-0.13568147555727578,51.47272606451637],[-0.15062868448712863,51.46762111820438],[-0.15079757950328515,51.46304287270235],[-0.14775746921246763,51.45234679471531],[-0.14235282869545868,51.451009784966935],[-0.14556183400243272,51.44537813784497],[-0.14361954131663263,51.44185329396288],[-0.1359348180815106,51.44201535575056],[-0.1396505084369542,51.43533030700866],[-0.13525923801688444,51.43034690703743],[-0.13838379581578025,51.430549484272035],[-0.13787711076731068,51.42110938513953],[-0.14041053600965858,51.419245674581184],[-0.1444640163974153,51.417746603045124],[-0.15991791037573772,51.422648972122516],[-0.161606860537303,51.41985340628499],[-0.18195870998416475,51.424715259915466],[-0.184576582734591,51.42763237209375],[-0.18575884784768665,51.43318298832187],[-0.1910790408566173,51.43306144198111],[-0.19006567075967817,51.44144813949367],[-0.2054351172299223,51.438774119996914],[-0.21573771321547058,51.4377612338239],[-0.2242669115313753,51.43885515089075],[-0.23136050220994953,51.438125872846186],[-0.2511212191002634,51.43257525661806],[-0.2540768818830027,51.43727504846085],[-0.2416630981954978,51.443149788264336],[-0.2473210812367415,51.44918658985551],[-0.25914373236769855,51.45493978331823],[-0.25804591476268113,51.46028782231175],[-0.252894616769907,51.46523070683606],[-0.24301425832475004,51.46519019138914],[-0.23330279489574962,51.46397472798152],[-0.2330494523715148,51.47211833281256],[-0.22342243645059268,51.471510601108754]]]}},{"type":"Feature","id":"Hammersmith and Fulham","properties":{"GSSCode":"E09000013"},"geometry":{"type":"Polygon","coordinates":[[[-0.2445343134701588,51.488689150603086],[-0.24444986596208051,51.49792667250099],[-0.2492633739225416,51.49695430177489],[-0.2530635117860635,51.50141100093616],[-0.2550902519799419,51.50428759766752],[-0.24571657858325452,51.50461172124288],[-0.24664550117211542,51.51125625453786],[-0.24884113638215027,51.5136871813531],[-0.25255682673759394,51.52507202193779],[-0.24630771113980238,51.5327699568527],[-0.2435209433732196,51.53179758612661],[-0.23440061250076705,51.53264841051194],[-0.22848928693528853,51.53033903003747],[-0.22671588926564495,51.52199284797182],[-0.228320391919132,51.521101508139566],[-0.22257796136981,51.515631922805284],[-0.21928450855475767,51.5095546057672],[-0.21523102816700102,51.50765037976193],[-0.21801779593358372,51.50615130822587],[-0.21413321056198353,51.50076275378543],[-0.20298613949565264,51.49330791155204],[-0.1979192890109568,51.487838326217755],[-0.19445694117974793,51.48650131646938],[-0.18390100266996484,51.47742585635916],[-0.17942528474181685,51.477628433593765],[-0.18280318506494742,51.46956585965657],[-0.1863499804042345,51.46644617024368],[-0.19369691360704355,51.464825552366854],[-0.20239500693910478,51.465311737729905],[-0.2159066082316271,51.469120189740444],[-0.22198682881326215,51.47386049703015],[-0.2244358065475318,51.483462657950334],[-0.2293337620160712,51.48905378962537],[-0.2331338998795931,51.49030976847991],[-0.2445343134701588,51.488689150603086]]]}},{"type":"Feature","id":"Kensington and Chelsea","properties":{"GSSCode":"E09000020"},"geometry":{"type":"Polygon","coordinates":[[[-0.18390100266996484,51.47742585635916],[-0.19445694117974793,51.48650131646938],[-0.1979192890109568,51.487838326217755],[-0.20298613949565264,51.49330791155204],[-0.21413321056198353,51.50076275378543],[-0.21801779593358372,51.50615130822587],[-0.21523102816700102,51.50765037976193],[-0.21928450855475767,51.5095546057672],[-0.22257796136981,51.515631922805284],[-0.228320391919132,51.521101508139566],[-0.22671588926564495,51.52199284797182],[-0.22848928693528853,51.53033903003747],[-0.2159910557397054,51.52790810322223],[-0.20653293483493973,51.5260849081108],[-0.2006216092694612,51.520777384564205],[-0.20374616706835702,51.52065583822344],[-0.19918600163213074,51.51453800573843],[-0.1950480737362958,51.515024191101475],[-0.1921768584616348,51.50987872934256],[-0.18795448305772156,51.51016233747101],[-0.1842387927022779,51.501775639958446],[-0.18035420733067775,51.50145151638308],[-0.17959417975797337,51.497764610713304],[-0.1654914459089032,51.498696465992474],[-0.1584823027384072,51.50226182532149],[-0.15485105989104186,51.49197090180366],[-0.155864429987981,51.48962100588226],[-0.15003755193058077,51.485488430296364],[-0.17579404189445147,51.481639462838906],[-0.17934083723373856,51.47799307261605],[-0.18390100266996484,51.47742585635916]]]}},{"type":"Feature","id":"Westminster","properties":{"GSSCode":"E09000033"},"geometry":{"type":"Polygon","coordinates":[[[-0.15003755193058077,51.485488430296364],[-0.155864429987981,51.48962100588226],[-0.15485105989104186,51.49197090180366],[-0.1584823027384072,51.50226182532149],[-0.1654914459089032,51.498696465992474],[-0.17959417975797337,51.497764610713304],[-0.18035420733067775,51.50145151638308],[-0.1842387927022779,51.501775639958446],[-0.18795448305772156,51.51016233747101],[-0.1921768584616348,51.50987872934256],[-0.1950480737362958,51.515024191101475],[-0.19918600163213074,51.51453800573843],[-0.20374616706835702,51.52065583822344],[-0.2006216092694612,51.520777384564205],[-0.20653293483493973,51.5260849081108],[-0.2159910557397054,51.52790810322223],[-0.21523102816700102,51.5313924316574],[-0.20298613949565264,51.53289150319346],[-0.19656812888170455,51.5276650105407],[-0.19150127839700865,51.536294800734794],[-0.18879895813850417,51.534512121070286],[-0.18018531231452123,51.53957655193536],[-0.16954492629665985,51.538604181209266],[-0.16498476086043357,51.53576809992482],[-0.15273987218908525,51.53751026414241],[-0.14716633665591977,51.52503150649086],[-0.14285951374392825,51.52389707397709],[-0.13703263568652801,51.51887315855893],[-0.13086796759681468,51.51709047889443],[-0.1275745147817624,51.512633779733164],[-0.12292990183745783,51.51514573744224],[-0.11161393575497036,51.51534831467684],[-0.11161393575497036,51.51077006917482],[-0.1199742390547186,51.50878481227571],[-0.1225076642970665,51.50578666920358],[-0.12529443206364926,51.49180884001598],[-0.13162799516951906,51.48609616200017],[-0.139903850961189,51.48479966769871],[-0.15003755193058077,51.485488430296364]]]}},{"type":"Feature","id":"Camden","properties":{"GSSCode":"E09000007"},"geometry":{"type":"Polygon","coordinates":[[[-0.14243727620353697,51.56911231274047],[-0.14108611607428473,51.560523037993306],[-0.13720153070268454,51.55537757623439],[-0.13120575762912778,51.5516501551177],[-0.12689893471713626,51.54699087872183],[-0.12259211180514479,51.53763181048317],[-0.12259211180514479,51.530744184506666],[-0.11600520617504012,51.529852844674416],[-0.11237396332767474,51.523694496742486],[-0.10705377031874408,51.52219542520643],[-0.1053648201571788,51.51854903498357],[-0.11380957096500527,51.51826542685512],[-0.11161393575497036,51.51534831467684],[-0.12292990183745783,51.51514573744224],[-0.1275745147817624,51.512633779733164],[-0.13086796759681468,51.51709047889443],[-0.13703263568652801,51.51887315855893],[-0.14285951374392825,51.52389707397709],[-0.14716633665591977,51.52503150649086],[-0.15273987218908525,51.53751026414241],[-0.16498476086043357,51.53576809992482],[-0.16954492629665985,51.538604181209266],[-0.18018531231452123,51.53957655193536],[-0.18879895813850417,51.534512121070286],[-0.19150127839700865,51.536294800734794],[-0.21354207800543573,51.55517499899979],[-0.20999528266614859,51.556755101429694],[-0.20585735477031364,51.55529654534055],[-0.20019937172906993,51.556187885172804],[-0.1985104215675046,51.558740358328805],[-0.19074125082430426,51.56181953229477],[-0.18989677574352165,51.564939221707654],[-0.1780741246125646,51.570449322488855],[-0.17444288176519923,51.56923385908124],[-0.17131832396630342,51.572434579387966],[-0.167349291086625,51.57296128019793],[-0.15037534196289382,51.571583755002635],[-0.14243727620353697,51.56911231274047]]]}},{"type":"Feature","id":"Tower Hamlets","properties":{"GSSCode":"E09000030"},"geometry":{"type":"Polygon","coordinates":[[[-0.07935498766907334,51.50785295699653],[-0.07876385511252548,51.508825327722626],[-0.07876385511252548,51.508825327722626],[-0.07276808203896867,51.510283883811766],[-0.07395034715206439,51.51445697484459],[-0.07943943517715157,51.51883264311201],[-0.07851051258829067,51.52150666260877],[-0.07614598236209924,51.5221549097595],[-0.07724379996711672,51.52730037151842],[-0.0742036896762992,51.530136452802864],[-0.06635007142502058,51.53123036986972],[-0.059678718286837684,51.53410696660108],[-0.04988280734975897,51.53641634707555],[-0.0446470618489066,51.53588964626559],[-0.03290885822602779,51.54464098280044],[-0.029024272854427657,51.54229108687904],[-0.01661048916692276,51.543344488498974],[-0.02125510211122733,51.537145625120125],[-0.01686383169115757,51.53114933897587],[-0.010952506125679051,51.52940717475829],[-0.007490158294470195,51.52620645445156],[-0.00782794832678324,51.52300573414484],[-0.009179108456035423,51.51984552928503],[-0.004281152987496095,51.51640171629678],[-0.002676650334009101,51.51777924149208],[0.003656912771860754,51.51453800573843],[0.0013768300537475575,51.51101316185634],[0.00872376325655666,51.507326256186566],[0.003656912771860754,51.5083796578065],[-0.0017477277451481976,51.507407287080405],[-0.006561235705609292,51.50400398953907],[-0.00782794832678324,51.50080326923235],[-0.0032677828905569584,51.49213296359134],[-0.0036900204309482376,51.488972758731535],[-0.008587975899487565,51.4865418319163],[-0.016441594150766237,51.48613667744709],[-0.021423997127383854,51.48747368719547],[-0.027842007741331942,51.49436131317197],[-0.027842007741331942,51.50505739115901],[-0.030037642951366794,51.507447802527324],[-0.04076247647730641,51.50983821389564],[-0.047856067155880644,51.50866326593494],[-0.05630081796370712,51.50376089685755],[-0.0628032760857335,51.50311264970682],[-0.07935498766907334,51.50785295699653]]]}},{"type":"Feature","id":"Islington","properties":{"GSSCode":"E09000019"},"geometry":{"type":"Polygon","coordinates":[[[-0.14243727620353697,51.56911231274047],[-0.1329791552987713,51.573082826538695],[-0.11955200151432727,51.57551375335393],[-0.11507628358617922,51.57057086882962],[-0.1043514500602396,51.56477715991997],[-0.09860901951091766,51.560847161568674],[-0.09168432384849995,51.560239429864865],[-0.090417611227326,51.55416211282677],[-0.07969277770138639,51.55181221690538],[-0.07682156242672539,51.54609953888958],[-0.08383070559722133,51.54658572425262],[-0.0866174733638041,51.53726717146088],[-0.09700451685743061,51.5329725340873],[-0.09540001420394356,51.52920459752369],[-0.08501297071031705,51.52620645445156],[-0.08518186572647357,51.52033171464807],[-0.09793343944629151,51.522884187804074],[-0.09768009692205676,51.52073686911728],[-0.1053648201571788,51.51854903498357],[-0.10705377031874408,51.52219542520643],[-0.11237396332767474,51.523694496742486],[-0.11600520617504012,51.529852844674416],[-0.12259211180514479,51.530744184506666],[-0.12259211180514479,51.53763181048317],[-0.12689893471713626,51.54699087872183],[-0.13120575762912778,51.5516501551177],[-0.13720153070268454,51.55537757623439],[-0.14108611607428473,51.560523037993306],[-0.14243727620353697,51.56911231274047]]]}},{"type":"Feature","id":"Hackney","properties":{"GSSCode":"E09000012"},"geometry":{"type":"Polygon","coordinates":[[[-0.061198773432246445,51.577782618381484],[-0.05824311064950716,51.5723130330472],[-0.04675824955086322,51.56445303634461],[-0.047349382107411075,51.562791903020866],[-0.03333109576641913,51.56060406888715],[-0.029362062886740703,51.56133334693172],[-0.018468334344644566,51.55517499899979],[-0.017201621723470617,51.55156912422386],[-0.018975019393114134,51.550475207157],[-0.01661048916692276,51.543344488498974],[-0.029024272854427657,51.54229108687904],[-0.03290885822602779,51.54464098280044],[-0.0446470618489066,51.53588964626559],[-0.04988280734975897,51.53641634707555],[-0.059678718286837684,51.53410696660108],[-0.06635007142502058,51.53123036986972],[-0.0742036896762992,51.530136452802864],[-0.07724379996711672,51.52730037151842],[-0.07614598236209924,51.5221549097595],[-0.07851051258829067,51.52150666260877],[-0.08518186572647357,51.52033171464807],[-0.08501297071031705,51.52620645445156],[-0.09540001420394356,51.52920459752369],[-0.09700451685743061,51.5329725340873],[-0.0866174733638041,51.53726717146088],[-0.08383070559722133,51.54658572425262],[-0.07682156242672539,51.54609953888958],[-0.07969277770138639,51.55181221690538],[-0.090417611227326,51.55416211282677],[-0.09168432384849995,51.560239429864865],[-0.09860901951091766,51.560847161568674],[-0.1043514500602396,51.56477715991997],[-0.09607559426856971,51.57065189972346],[-0.09776454443013499,51.573609527348665],[-0.0808750428144821,51.57559478424777],[-0.07623042987017753,51.57494653709704],[-0.061198773432246445,51.577782618381484]]]}},{"type":"Feature","id":"Haringey","properties":{"GSSCode":"E09000014"},"geometry":{"type":"Polygon","coordinates":[[[-0.1043514500602396,51.56477715991997],[-0.11507628358617922,51.57057086882962],[-0.11955200151432727,51.57551375335393],[-0.1329791552987713,51.573082826538695],[-0.14243727620353697,51.56911231274047],[-0.15037534196289382,51.571583755002635],[-0.167349291086625,51.57296128019793],[-0.17131832396630342,51.572434579387966],[-0.16574478843313795,51.58321168826885],[-0.15746893264146805,51.58657447036325],[-0.1616913080453813,51.597675702819494],[-0.1567933525768419,51.604927967818284],[-0.15333100474563305,51.60265910279073],[-0.151388712059833,51.59743261013797],[-0.1444640163974153,51.60010662963473],[-0.14209948617122387,51.60330734994146],[-0.1434506463004761,51.60885796616958],[-0.1388060333561716,51.61019497591796],[-0.13500589549264969,51.61120786209098],[-0.12352103439400569,51.6086959043819],[-0.10696932281066585,51.60829074991269],[-0.09556890922010014,51.609263120638786],[-0.08585744579109972,51.608452811700374],[-0.06711009899772497,51.608938997063426],[-0.06711009899772497,51.608938997063426],[-0.05562523789908097,51.6088984816165],[-0.041438056541932555,51.60561673041593],[-0.05064283492246335,51.59654127030572],[-0.05351405019712435,51.58989673701074],[-0.052162890067872114,51.587992511005474],[-0.06229659103726387,51.579524782599066],[-0.061198773432246445,51.577782618381484],[-0.07623042987017753,51.57494653709704],[-0.0808750428144821,51.57559478424777],[-0.09776454443013499,51.573609527348665],[-0.09607559426856971,51.57065189972346],[-0.1043514500602396,51.56477715991997]]]}},{"type":"Feature","id":"Newham","properties":{"GSSCode":"E09000025"},"geometry":{"type":"MultiPolygon","coordinates":[[[[0.0755217421464639,51.5298123292275],[0.07543729463838567,51.529852844674416],[0.0755217421464639,51.5298123292275],[0.0755217421464639,51.5298123292275]]],[[[-0.00782794832678324,51.52300573414484],[-0.007490158294470195,51.52620645445156],[-0.010952506125679051,51.52940717475829],[-0.01686383169115757,51.53114933897587],[-0.02125510211122733,51.537145625120125],[-0.01661048916692276,51.543344488498974],[-0.018975019393114134,51.550475207157],[-0.017201621723470617,51.55156912422386],[-0.01061471609336595,51.552622525843795],[-0.00867242340756591,51.54990799090011],[0.0030657802153128966,51.552095825033824],[0.009483790829260985,51.55124500064849],[0.014550641313956891,51.554972421765186],[0.01691517154014832,51.55318974210068],[0.020377519371357122,51.55626891606665],[0.025359922347974684,51.554081081932935],[0.03498693826889687,51.55521551444671],[0.04613400933522782,51.55485087542443],[0.041911633931314585,51.56145489327248],[0.05035638473914106,51.56400736642848],[0.054409865126897716,51.559672213607975],[0.060152295676219714,51.556430977854326],[0.06361464350742863,51.557322317686584],[0.06783701891134175,51.55306819575992],[0.06834370395981137,51.54439789011891],[0.06716143884671566,51.53933345925384],[0.07315721192027247,51.52936665931137],[0.07847740492920319,51.5288399585014],[0.08523320557546432,51.52559872274775],[0.09198900622172546,51.52563923819467],[0.09587359159332565,51.51542934557068],[0.09030005606016023,51.514700067526114],[0.08337536039774252,51.511539862666304],[0.07366389696874209,51.500398114763144],[0.06032119069237629,51.49837234241711],[0.04410726914134944,51.49995244484702],[0.02637329244491393,51.498615435098635],[0.01775964662093088,51.50056017655083],[0.006528128046521697,51.51020285291793],[0.007288155619226133,51.51433542850383],[-0.002423307809774289,51.518184395961285],[-0.004872285544043953,51.51696893255367],[-0.008587975899487565,51.52004810651963],[-0.00782794832678324,51.52300573414484]]]]}},{"type":"Feature","id":"Barking and Dagenham","properties":{"GSSCode":"E09000002"},"geometry":{"type":"MultiPolygon","coordinates":[[[[0.07315721192027247,51.52936665931137],[0.06716143884671566,51.53933345925384],[0.06834370395981137,51.54439789011891],[0.06935707405675062,51.54411428199047],[0.06859704648404619,51.54075149989606],[0.0755217421464639,51.5298123292275],[0.07543729463838567,51.529852844674416],[0.07315721192027247,51.52936665931137]]],[[[0.06969486408906367,51.54407376654355],[0.07822406240496838,51.54427634377815],[0.09224234874596027,51.54861149659865],[0.09350906136713422,51.545856446208056],[0.11107414304741325,51.55250097950303],[0.1171543636290483,51.55687664777046],[0.1190122088067701,51.56307551114931],[0.12931480479231838,51.56647880869064],[0.13159488751043158,51.57182684768416],[0.12914590977616192,51.57632406229234],[0.13252381009929248,51.581307462263574],[0.12779474964690962,51.58163158583894],[0.1263591420095791,51.58673653215094],[0.13100375495388372,51.58750632564243],[0.1295681473165532,51.590058798798424],[0.14654209644028438,51.59941786703708],[0.14814659909377137,51.59897219712096],[0.15110226187651066,51.59544735323887],[0.15093336686035408,51.58373838907881],[0.14747101902914528,51.58078076145361],[0.14975110174725847,51.56967952899736],[0.16191154291052856,51.56161695506017],[0.17339640400917256,51.56510128349534],[0.18344565747048602,51.564615098132286],[0.18437458005934693,51.557646441261944],[0.19020145811674716,51.552663041290714],[0.18581018769667734,51.54723397140335],[0.18006775714735546,51.54374964296818],[0.1792232820665728,51.54030582997993],[0.17500090666265955,51.5384826348685],[0.1707785312587463,51.53260789506502],[0.1654583382498156,51.528434804032194],[0.15870253760355446,51.51218810981704],[0.15245342200576284,51.512593264286245],[0.1435864336575451,51.51514573744224],[0.13598615793050128,51.51854903498357],[0.12711916958228353,51.51944037481582],[0.11918110382292668,51.518143880514366],[0.10668287262734355,51.51393027403462],[0.09933593942453445,51.51482161386687],[0.0955358015610126,51.51696893255367],[0.09545135405293437,51.520534291882676],[0.09173566369749064,51.52673315526153],[0.08557099560777737,51.5260849081108],[0.07653511224340304,51.5298123292275],[0.06893483651635923,51.54196696330367],[0.06969486408906367,51.54407376654355]]]]}},{"type":"Feature","id":"City of London","properties":{"GSSCode":"E09000001"},"geometry":{"type":"Polygon","coordinates":[[[-0.11161393575497036,51.51077006917482],[-0.11161393575497036,51.51534831467684],[-0.11380957096500527,51.51826542685512],[-0.1053648201571788,51.51854903498357],[-0.09768009692205676,51.52073686911728],[-0.09793343944629151,51.522884187804074],[-0.08518186572647357,51.52033171464807],[-0.07851051258829067,51.52150666260877],[-0.07943943517715157,51.51883264311201],[-0.07395034715206439,51.51445697484459],[-0.07276808203896867,51.510283883811766],[-0.07876385511252548,51.508825327722626],[-0.07876385511252548,51.508825327722626],[-0.07935498766907334,51.50785295699653],[-0.09970683711593509,51.51077006917482],[-0.11161393575497036,51.51077006917482]]]}}]}